ADRAS-J                 
1 58992U 24034A   24277.55915033  .00013909  00000+0  12308-2 0  9996
2 58992  98.2246 255.6790 0044868  54.0904 306.4467 14.95632198 34052
